[{"OBJECT_NAME":"SJ 16-02","OBJECT_ID":"2016-043A","EPOCH":"2026-03-09T22:18:39.296736","MEAN_MOTION":14.93231549,"ECCENTRICITY":0.00086699,"INCLINATION":75.0004,"RA_OF_ASC_NODE":106.8267,"ARG_OF_PERICENTER":275.0544,"MEAN_ANOMALY":84.9655,"EPHEMERIS_TYPE":0,"CLASSIFICATION_TYPE":"U","NORAD_CAT_ID":41634,"ELEMENT_SET_NO":999,"REV_AT_EPOCH":52632,"BSTAR":0.0001182302,"MEAN_MOTION_DOT":1.208e-5,"MEAN_MOTION_DDOT":0},{"OBJECT_NAME":"ION SCV-018","OBJECT_ID":"2025-135AZ","EPOCH":"2026-03-09T20:46:52.870080","MEAN_MOTION":14.94433361,"ECCENTRICITY":0.00112281,"INCLINATION":97.7645,"RA_OF_ASC_NODE":184.9218,"ARG_OF_PERICENTER":262.207,"MEAN_ANOMALY":97.7875,"EPHEMERIS_TYPE":0,"CLASSIFICATION_TYPE":"U","NORAD_CAT_ID":64575,"ELEMENT_SET_NO":999,"REV_AT_EPOCH":3909,"BSTAR":0.00019355798,"MEAN_MOTION_DOT":2.03e-5,"MEAN_MOTION_DDOT":0}]
